Number,Name,Address,Latitude,Longitude
231,231 - KERSBEEK,KERSBEEK - AV KERSBEEK 107 / KERSBEEKLAAN 107,50.805801,4.3194
122,122 - GARE D'ETTERBEEK,GARE D'ETTERBEEK/STATION VAN ETTERBEEK - BOULEVARD GENERAL JACQUES/GENERAAL JACQUESLAAN,50.822207,4.389325
1,001 - LEOPOLD II,LEOPOLD II - AVENUE DE TERVUREN FACE / TERVURENLAAN VOOR 218,50.836304,4.41505
212,212 - THEO LAMBERT,THEO LAMBERT - BD THEO LAMBERT (FACE 66) / THEO LAMBERT LAAN (TEGENOVER 66),50.82701,4.292098
333,333 - TRACTEBEL,TRACTEBEL - AV MARCEL THIRY FACE AU N°93,50.856582,4.430988
184,184 - PHILIPPE BAUCQ,PHILIPPE BAUCQ - RUE PHILIPPE BAUCQ / PHILIPPE BAUCQSTRAAT 32 - 38,50.831592,4.385786
360,360 - STOCKEL/STOKKEL,STOCKEL/STOKKEL - AVENUE D'OPHEMLAAN 1-3,50.84157,4.46577
186,186 - GENOT,GENOT - CHAUSSEE DE GAND DEVANT 1033,50.861783,4.302607
167,167 - CHARLES V/KAREL V,CHARLES V/KAREL V - AVENUE CHARLES QUINT/KEIZER KARELLAAN 129-131,50.869032,4.309731
305,305 - PETER BENOIT,PETER BENOIT - PLACE PETER BENOIT PLAATS 2-4,50.895592,4.387965
50,050 - RIBAUCOURT,RIBAUCOURT - BLD LEOPOLD II / LEOPOLD II-LAAN 121-123,50.860862,4.339182
93,093 - CLOVIS,CLOVIS - CHAUSSEE DE LOUVAIN - LEUVENSESTEENWEG 260-264,50.850333,4.380461
274,274 - CORHAY,CORAY - CHEE DE GAND DEVANT 579-587 GENTSESTEENWEG VOOR 579-587,50.86002,4.307502
98,098 - CIMETIERE/KERKHOF,CIMETIERE/KERKHOF - BLD METTEWIE/METTEWIELAAN 40 INTERSECTION CHAUSSÉE DE GAND/GENTSESTEENWEEG,50.85904,4.312402
260,260 - TRITON,TRITON - AVENUE DES ANCIENS COMBATTANTS - PISCINE / OUD-STRIJDERSLAAN - ZWEMBAD,50.86702,4.406995
38,038 - JEU DE BALLE / VOSSENPLEIN,JEU DE BALLE/VOSSENPLEIN - RUE BLAES/BLAESSTRAAT 135-141,50.837912,4.347421
57,057 - MADOU/MADOU,MADOU - AVENUE DES ARTS/KUNSTLAAN 1-2,50.848712,4.369509
351,351 - ULB,ULB - AV BUYL CROISEMENT AV DE L'UNIVERSITE (DEVANT L'ULB),50.813724,4.384205
206,206 - SAINT-GUIDON / SINT GUIDO,SAINT GUIDON / SINT GUIDO - AV PAUL JANSON (FACE AU 34-28) / PAUL JANSONLAAN (TEGENOVER 34-28),50.834755,4.305962
228,228 - ALTITUDE CENT/HOOGTE HONDERD,ALTITUDE CENT / HOOGTE HONDERD - PLACE DE L'ALTITUDE 100 (FACE 31) / HOOGTE HONDERDPLEIN (TEGENOVER 31),50.816525,4.336212
178,178 - DIAMANT/DIAMANT,DIAMANT/DIAMANT - RUE COLONEL BOURG EN FACE 3,50.85043,4.402169
245,245 - HAMOIR,CHEE DE WATERLOO/WATERLOOSESTEENWEG 1050,50.798988,4.375581
99,099 - JUBILE,JUBILE - BOULEVARD DU JUBILE/ JUBELFEESTLAAN 79,50.864992,4.338431
358,358 - MADOUX,MADOUX - AVENUE DE TERVUREN FACE 403,50.82708,4.444795
242,242 - MAISON COMMUNALE D'UCCLE/UKKEL GEMEENTEHUIS,MAISON COMMUNALE D'UCCLE/UKKEL GEMEENTEHUIS - PLACE JEAN VANDER ELST / JEAN VANDER ELST PLEIN,50.803791,4.333321
200,200 - VETERANS COLONIAUX / KOLONIALE VETERANEN,VETERANS COLONIAUX / KOLONIALE VETERANEN - BD JULES GRAINDOR / JULES GRAINDORLAAN,50.843967,4.313537
181,181 - LOUIS TITZ,LOUIS TITZ - AVENUE DE LA CHASSE/ JACHTLAAN 182 - 184,50.835723,4.394395
158,158 - VAN YSENDIJCK,VAN YSENDIJCK - AVENUE VOLTAIRE (FACE 6) / VOLTAIRELAAN (TEGENOVER 6),50.867955,4.379577
161,161 - DEMOLDER,DEMOLDER - AVENUE EUGENE DEMOLDER / EUGENE DEMOLDERLAAN 68,50.872592,4.379886
347,347 - ERASME,ERASME - ROUTE DE LENNIK N°808,50.8149606388997,4.26542850805528
283,283 - PISCINE / ZWEMBAD,PISCINE / ZWEMBAD - RUE DE LOMBARTZYDE / LOMBARDSIJDESTRAAT,50.893158,4.376931
125,125 - GEORGES BRUGMANN,GEORGES BRUGMANN - PLACE GEORGES BRUGMANN/GEORGES BRUGMANNPLEIN N° 10 - 11,50.817392,4.354105
246,246 - GATTI DE GAMOND,GATTI DE GAMMOND - RUE DE STALLE PROLONGEE/STALLE STRAAT 160,50.796471,4.328415
140,140 - AZALEES/AZALEA,AZALEES / AZALEA -   AVENUE PAUL DESCHANEL/LAAN FACE/TEGENOVER N°  6-8,50.862704,4.381289
335,335 - THIRY,THIRY - BD DE LA WOLUWE DVT 100,50.854231,4.444034
279,279 - HOUBA BRUGMANN,HOUBA BRUGMANN - AVENUE HOUBA DE STROOPER / HOUBA DE STROOPERLAAN,50.890181,4.336962
12,012 - TRONE / TROON,TRONE/TROON - AVENUE MARNIX/MARNIXLAAN 30,50.840458,4.365981
18,018 - GUTENBERG / GUTENBERG,GUTENBERG - SQUARE GUTENBERG (FACE N° 5)/GUTENBERGSSQUARE (TEGENOVER N° 5),50.84771,4.377552
177,177 - CHASSEURS ARDENNAIS/ARDENSE JAGERS,CHASSEURS ARDENNAIS/ARDENSE JAGERSPLEIN - RUE DU NOYER 81-87 /NOTELAARSSTRAAT 81-87,50.849409,4.389263
175,175 - BEEKKANT,BEEKKANT - BOULEVARD EDMOND MACHTENS / EDMOND MACHTENSLAAN,50.854166,4.322948
308,308 - TIVOLI,TIVOLI - RUE DE MOLENBEEK CROISEMENT RUE DE WAUTIER/ KRUISPUNT MOLENBEEKSTRAAT-DE WAUTIERSTRAAT,50.872265,4.352158
350,350 - VERHEYLEWEGHEN,VERHEYLEWEGHEN - PLACE VERHEYLEWEGHEN DVT LES N°32-34,50.848184,4.425621
7,007 - PARC / PARK,PARC/PARK - RUE ROYALE  (FACE N°66-68)/KONINGSSTRAAT (TEGENOVER N°66-68),50.846319,4.362244
321,321 - SACRE-CŒUR DE/HEILIGE HART VAN JETTE,SACRE-CŒUR DE JETTE/HEILIGE HART VAN JETTE - AVENUE DU SACREE CŒUR FACE 71 A 79/HEILIGE HARTLAAN VOOR 71 TOT 79,50.884251,4.330287
193,193 - GARE DE L'OUEST,GARE DE L'OUEST - CHEE DE NINOVE 207,209 / NINOOFSESTEENWEG 207,209,50.848866,4.320628
330,330 - VANDERVELDE,VANDERVELDE - AVENUE EMILE VANDERVELDE 90,50.847546,4.450015
79,079 - LOI / WET,LOI/WET - RUE D'ARLON/STRAAT 120,50.84413,4.374871
114,114 - SAISONS/JAARGETIJDEN,SAISONS/JAARGETIJDEN  -  AVENUE DES SAISONS 2 / JAARGETIJDENLAAN 2  ( FERMER PROB CONNEXION ),50.820391,4.385358
339,339 - MEUDON,MEUDON - SQUARE MEUDON,50.845365,4.41788
285,285 - COGHEN,COGHEN - AV COGHEN 1 A 5 / COGHENSTRAAT 1 TOT 5,50.813469,4.338951
232,232 - DOMAINE / DOMEIN,DOMAINE / DOMEIN - AV DU DOMAINE (FACE 150) / DOMEINELAAN (VOOR 150),50.810875,4.329158
191,191 - ARTAN,ARTAN - RUE CLAYS,50.853973,4.38374
221,221 - CURIE,CURIE - SQUARE MARIE CURIE (FACE 30) / MARIE CURIE SQUARE (TEGENOVER 30),50.821846,4.284394
153,153 - SQUARE ARMAND STEURS,SQUARE ARMAND STEURS/ARMAND STEURSSQUARE - AVENUE PAUL DESCHANEL (FACE N° 267 - 269) / PAUL DESCHANELLAAN (TEGENOVER 267 - 269),50.854128,4.378002
97,097 - KARREVELD,KARREVELD - CHAUSSEE DE GAND/ GENTSESTEENWEG 1-3,50.858058,4.318689
169,169 - GEORGES EEKHOUD,GEORGES EEKHOUD - AVENUE GEORGES EEKHOUD/GEORGES EEKHOUDLAAN 56,50.877125,4.387515
43,043 - JOSEPH II / JOZEF II,JOSEPH II/JOZEF II - RUE JOSEPH II/JOZEF II-STRAAT,50.845256,4.374501
82,082 - PANNENHUIS,PANNENHUIS - RUE CHARLES DEMEER/CHARLES DEMEERSTRAAT  71,50.872811,4.341149
100,100 - GARE DE LUXEMBOURG/LUXEMBURGSTATION,GARE DE LUXEMBOURG/LUXEMBURGSTATION - RUE DE TREVES / TRIERSTRAAT,50.838411,4.37302
58,058 - GARE DU NORD / NOORDSTATION,GARE DU NORD/NOORDSTATION - PLACE DU NORD / NOORDPLAATS,50.859181,4.35942
234,234 - ST DENIS / ST DENIJS,ST DENIS / ST DENIJS - PLACE ST DENIS FACE 68 / ST DENIJSPLAATS VOOR 68,50.809799,4.317546
269,269 - CICERON,CICERON - CHAUSSÉE DE LOUVAIN / LEUVENSESTEENWEG 951,50.860925,4.421374
319,319 - ANCIENNE BARRIERE/OUDE AFSPANNING,ANCIENNE BARRIERE / OUDE AFSPANNINGSPLEIN - PLACE DE L'ANCIENNE BARRIERE FACE 10,50.885197,4.317648
256,256 - VAN OVERBEKE,VAN OVERBEKE / AV VAN OVERBEKE / VAN OVERBEKELAAN,50.874767,4.308977
130,130 - ROND POINT DU SOUVERAIN,ROND POINT DU SOUVERAIN - BOULEVARD DU SOUVERAIN FACE / VORSTLAAN VOOR 207,50.819448,4.429082
39,039 - HOTEL DES MONNAIES / MUNTHOTEL,HOTEL DES MONNAIES/MUNTHOTEL - BLD DE WATERLOO- WATERLOOLAAN 93/94/95/96/98,50.834237,4.350732
86,086 - MAISON COMMUNALE DE JETTE GEMEENTEHUIS,MAISON COMMUNALE DE JETTE / JETTE GEMEENTEHUIS - CHAUSSEE DE WEMMEL/WEMMELSESTEENWEG 102,50.876195,4.324477
345,345 - 3 TILLEULS,3 TILLEULS - AV DES ORTOLANS 2,50.802675,4.412073
67,067 - PARC CINQUANTENAIRE / JUBELPARK,PARC CINQUANTENAIRE/JUBELPARK - AVENUE D'AUDERGHEM/OUDERGEMSESTEENWEG 45,50.83975,4.385426
292,292 - RITTWEGER,RITTWEGER - RUE RITTWEGER 6-8 / RITTWEGERSTRAAT 6-8,50.797739,4.336083
307,307 - KAREL BOGAERT,KAREL BOGAERT - BD EMILE BOCKSTAEL / EMILE BOCKSTAELLAAN 307,50.881889,4.347448
359,359 - JCDECAUX,JCDECAUX - ALLÉE VERTE 50 À 1000 BRUXELLES,50.867708,4.357532
344,344 - BETHLEEM,BETHLEEM - PLACE BETHLEEM,50.830179,4.337958
268,268 - DUNANT,DUNANT - AV HENRI DUNANT / HENRI DUNANTLAAN,50.862808,4.410791
111,111 - ETANGS MELLAERTS VIJVERS,ETANGS MELLAERTS VIJVERS - BOULEVARD DU SOUVERAIN FACE / VORSTLAAN VOOR 275,50.827831,4.431822
27,027 - SQUARE ALBERT I / ALBERT I SQUARE,SQUARE ALBERT I / ALBERT I-SQUARE 25 - 26 - 27,50.838733,4.32176
355,355 - PARNASSE,PARNASSE - RUE DU TRONE N°66 (CLOS PARNASSE),50.837714,4.369117
157,157 - HELIOTROPES/HELIOTROPEN,HELIOTROPES/HELIOTROPEN - BOULEVARD LAMBERMONT /  LAMBERMONTLAAN 374,50.863388,4.386222
154,154 - PLASKY/PLASKY,PLASKY - SQUARE EUGENE PLASKY (FACE 100) / EUGENE PLASKYSQUARE (TEGENOVER 100),50.851241,4.396386
132,132 - DEUX CHAUSSEES,DEUX CHAUSSEES - CHEE DE TERVURENLAAN FACE/TEGENOVER 93A,50.816338,4.433895
134,134 - BASTOGNE/BASTENAKEN,BASTOGNE/BASTENAKEN - PLACE DE BASTOGNE/BASTENAKENPLEIN,50.862652,4.316644
208,208 - MELBA,MELBA - AV NELLIE MELBA (FACE 1 a 9) / NELLIE MELBALAAN (TEGENOVER 1 tot 9),50.832565,4.294311
48,048 - CONGRES,CONGRES - RUE ROYALE/KONINGSSTRAAT 144-146-148,50.849358,4.363589
342,342 - MAISON COMMUNALE DE BERCHEM ST AGHATE,MAISON COMMUNALE DE BERCHEM ST AGHATE - AVENUE DU ROI ALBERT DVT 38,50.864761,4.294429
197,197 - DE SMET,DE SMET - PLACE HENRI DE SMET / HENRI DE SMETPLEIN,50.848255,4.314854
62,062 - CORTENBERGH / KORTENBERG,CORTENBERGH / KORTENBERG - AVENUE D'AUDERGHEM 1 - 9 /OUDERGHEMLAAN 1-9,50.84177,4.38418
278,278 - STADE / STADIUM,STADE / STADIUM - AVENUE HOUBA DE STROOPER / HOUBA DE STROOPERLAAN,50.894005,4.331902
320,320 - UZ BRUSSEL,UZ BRUSSEL - AVENUE DE L'ARBRE BALLON / DIKKE-BEUKLAAN,50.886451,4.310966
187,187 - ARSENAL/ARSENAAL,ARSENAL/ARSENAAL - BOULEVARD LOUIS SCHMIDT/ LOUIS SCHMIDTLAAN 2,50.826603,4.397117
315,315 - SACRE COEUR AUDERGHEM/HEILIGE HART OUDERGHEM,SACRE COEUR AUDERGHEM / HEILIGE HART OUDERGHEM - SQUARE DU SACREE CŒUR / HEILIG-HARTSQUARE,50.810322,4.435789
291,291 - DECROLY,DECROLY - RUE GATTI DE GAMMOND / GATTI DE GAMMOND STRAAT,50.804661,4.327886
238,238 - UNION SAINT-GILLOISE / SINT-GILLIS UNIE,UNION SAINT-GILLOISE / SINT-GILLIS UNIE - CH DE BRUXELLES 366-362 / BRUSSELSESTEENWEG 366-362,50.820278,4.330802
266,266 - GARE BORDET STATION,GARE BORDET / BORDET STATION - CHAUSSEE D'HAECHT FACE 1147 / HAACHTSESTEENWEG VOOR 1147,50.877552,4.409136
17,017 - COMTE DE FLANDRE/GRAAF VAN VLAANDEREN,COMTE DE FLANDRE/GRAAF VAN VLAANDEREN - RUE SAINTE-MARIE / SINT-MARIASTRAAT,50.855358,4.339465
229,229 - ZAMAN FOREST NATIONAL/ZAMAN VORST NATIONAAL,ZAMAN FOREST NATIONAL/ZAMAN VORST NATIONAAL - AV VAN VOLXEM 2 / VAN VOLXEMLAAN 2,50.813587,4.324681
74,074 - PLACE LOIX/LOIXPLEIN,PLACE LOIX/LOIXPLEIN - RUE BERCKMANS/ BERCKMANSSTRAAT 78 - 84,50.831936,4.353037
106,106 - GERMOIR/MOUTERIJ,GERMOIR/MOUTERIJ - AVENUE DE LA COURONNE/KROONLAAN 92-94-96,50.830012,4.378625
267,267 - GENEVE,GENEVE - RUE DE GENEVE /  GENEVESTRAT 12,50.862912,4.403226
190,190 - TERDELT,TERDELT - PLACE TERDELT / TERDELTPLEIN,50.867904,4.390696
362,362 - GARE BERCHEM ST AGATHE/ST AGATA BERCHEM,GARE BERCHEM ST AGATHE/ST AGATA BERCHEM STATION - RUE BOIS DES ÎLES/EILANDENHOUTSTRAAT 1-15,50.872501,4.290218
16,016 - LOUISE / LOUIZA,LOUISE/LOUIZA - PLACE LOUISE/LOUIZAPLEIN 53,50.835968,4.355508
318,318 - CARDINAL MERCIER / KARDINAAL MERCIER,CARDINAL MERCIER / KARDINAAL MERCIER - PLACE CARDINAL MERCIER / KARDINAAL MERCIER PLEIN 6,50.880539,4.32823
217,217 - BIZET,BIZET - PLACE BIZET (face 11 a 19) / BIZETPLEIN (TEGENOVER 11 tot 19),50.824913,4.297248
116,116 - ULB PLAINE,ULB PLAINE - BOULEVARD DE LA PLAINE  (ENTREE ULB) / PLEINLAAN (INGANG VUB),50.818253,4.395749
275,275 - VERSAILLES,VERSAILLES - AVENUE DE VERSAILLES / VERSAILLESLAAN 125,50.896278,4.372427
69,069 - LESBROUSSART,LESBROUSSART - AVENUE LOUISE/LOUIZALAAN 192,50.827577,4.363797
329,329 - ROODEBEEK,ROODEBEEK - AV PAUL HYMANS FACE À L'ARRÊT METRO ROODEBEEK,50.847617,4.436084
183,183 - LA CHASSE/JACHT,LA CHASSE/JACHT - AVENUE DES CASERNES/ KAZERNENLAAN 4 - 6,50.829928,4.390357
117,117 - CIMETIERE D'IXELLES/BEGRAAFPLAATS VAN ELSENE,CIMETIERE D'IXELLES / BEGRAAFPLAATS VAN ELSENE - AVENUE DE LA COURONNE/KROONLAAN 449,50.816029,4.391006
168,168 - HOPITAL FRANÇAIS/FRANS HOSPITAAL,HOPITAL FRANÇAIS/FRANS HOSPITAAL - AVENUE JOS GOFFINLAAN 133-135,50.866379,4.303281
257,257 - PL MARGHERITE D'AUTRICHE / MARGARETHA VAN OO,PLACE MARGHERITE D'AUTRICHE / MARGARETHA VAN OOSTENRIJKPLEIN,50.872169,4.298216
49,049 - WILLEBROECK/WILLEBROEK,WILLEBROECK/WILLEBROEK - QUAI DE WILLEBROECK/WILLEBROEKKAAI 22 BIS,50.8615,4.351143
118,118 - SCHWEITZER,SCHWEITZER - PLACE DOCTEUR SCHWEITZER,50.864622,4.297878
23,023 - AGORA / AGORA,AGORA - PLACE AGORA/AGORAPLEIN 120,50.846331,4.355193
332,332 - VERGOTE,VERGOTE - BD BRAND WHITLOK,50.845229,4.404311
271,271 - DUBOIS,DUBOIS - BD EMILE MACHTENS/LAAN 102-104,50.851158,4.309591
66,066 - SCHUMAN,SCHUMAN - RUE DE LA LOI 170,50.843359,4.379946
251,251 - PAOLA,PAOLA - RUE VICTOR ALLARD FACE 222 / VICTOR ALLARD STRAAT VOOR 222,50.800377,4.326985
131,131 - JARDIN MASSART,JARDIN MASSART - AV HERMANN DEBROUXLAAN,50.81329,4.434751
174,174 - MENNEKENS/MENNEKENS,MENNEKENS - AVENUE BRIGADE PIRON (FACE AUX 80 - 82 - 84)/ BRIGADE PIRONLAAN (TEGENOVER 80 - 82 - 84),50.853947,4.31635
56,056 - ARCHIMEDE / ARCHIMEDES,ARCHIMEDE / ARCHIMEDES - RUE ARCHIMEDE/ARCHIMEDESSTRAAT 58-64,50.845817,4.383722
123,123 - BASCULE,BASCULE -  CHAUSSEE DE VLEURGAT (DEVANT 315 - 317) / VLEURGATSESTEENWEG  (N° 315 - 317),50.817507,4.366498
143,143 - RTL,RTL  - CHAUSSEE DE LOUVAIN (DVT 770)/ LEUVENSE STEENWEG (N° 770),50.857218,4.407879
83,083 - SIMONIS,SIMONIS / BD LEOPOLD II (DEVANT 282)/ LEOPOLD II-LAAN (N° 282),50.86284,4.33126
155,155 - LES MARRONNIERS,LES MARRONNIERS - CHEE DE WAVRE / WAVERSESTEENWEG FACE / VOOR 1049 - 1055,50.824953,4.399088
147,147 - EMILE MAX LYCEE/LYCEUM EMILE MAX,EMILE MAX LYCEE/LYCEUM EMILE MAX - CHAUSSEE D'HAECHT/ HAACHTSESTEENWEG 226 - 230,50.861874,4.372146
84,084 - STE ANNE/SINT-ANNA,STE ANNE/SINT-ANNA  -  RUE DE L'EGLISE STE ANNE/SINT-ANNAKERKSTRAAT 116,50.85896,4.330107
77,077 - PAUL JANSON,PAUL JANSON - CHAUSSEE DE CHARLEROI/ CHARLEROISESTEENWEG 159,50.827399,4.355281
323,323 - CARENE,CARENE - AV LEON GROSJEAN 79,50.855186,4.415246
101,101 - ZELLIK,ZELLIK - CHAUSSEE DE ZELLIK 4,50.869204,4.291663
202,202 - AUMALE,AUMALE - RUE D'AUMALE / AUMALESTRAAT 339-341,50.840217,4.313386
270,270 - DE PADUWA,DE PADUWA - AVENUE DES ANCIENS COMBATTANTS / OUD-STRIJDERSLAAN 1,50.859127,4.414406
235,235 - FOREST NATIONAL / VORST NATIONAAL,FOREST NATIONAL / VORST NATIONAAL - AV VICTOR ROUSSEAU DVT FOREST NATIONAL / VICTOR ROUSSEAU LAAN VOOR VORST NATIONAAL,50.810085,4.324864
300,300 - GARE DE BOONDAELSTATION,GARE DE BOONDAELSTATION - AV DE LA FORET 23 / VORSTLAAN 23,50.801434,4.392831
94,094 - DUCHESSE DE BRABANT/HERTOGIN VAN BRABANT,DUCHESSE DE BRABANT/HERTOGIN VAN BRABANT - RUE DE BIRMINGHAM / BIRMINGHAMSTRAAT,50.849215,4.329184
263,263 - MAISON COMMUNALE D'EVERE,MAISON COMMUNALE D'EVERE/ EVERE GEMEENTEHUIS - SQUARE HOEDEMAEKERS / HOEDEMAEKERSESQUARE 7-8,50.872002,4.403286
304,304 - ARAUCARIA,ARAUCARIA - AV DES CROIX DE FEU DEV 221C,50.893497,4.363297
9,009 - ANNEESSENS,ANNEESSENS - BLD MAURICE LEMONNIER/MAURICE LEMONNIERLAAN 42-44-46,50.844045,4.345048
214,214 - CAMPUS CERIA / CAMPUS VAN CERIA,CAMPUS CERIA / CAMPUS VAN CERIA - AV EMILE GRYSON (FACE 6 a 10) / EMILE GRYSONLAAN (TEGENOVER 6 tot 10),50.816002,4.295121
352,352 - ROUGE-CLOÎTRE / ROOD-KLOOSTER,ROUGE-CLOÎTRE - RUE DU ROUGE-CLOÎTRE (PARKING CENTRE D'ART) / ROOD-KLOOSTERSTRAAT (PARKING KUNSTENCENTRUM),50.814264,4.443479
133,133 - CHÂTEAU/KASTEEL,CHATEAU-KASTEEL - AVENUE DU CHÂTEAU/KASTEELLAAN,50.866795,4.3092224
171,171 - PISCINE LOUIS NAMECHE ZWEMBAD,PISCINE LOUIS NAMECHE ZWEMBAD - RUE CHARLES MALISSTRAAT / PARKING PISCINE / ZWEMBAD PARKING,50.854789,4.312201
357,357 - AVIATION,AVIATION - INTERSECTION AVENUE DE L'AVIATION ET AVENUE ORBAN,50.834634,4.456746
112,112 - PAGE/EDELKNAAP,PAGE-EDELKNAAP  -  CHAUSSEE DE WATERLOO/  WATERLOOSE STEENWEG 440 - 442,50.821567,4.356508
41,041 - SAINT-ROCH/SINT-ROCHUS,SAINT ROCH/SINT-ROCHUS - CHAUSSEE D'ANVERS/ANTWERPSELAAN 37,50.859302,4.35485
249,249 - SAINT-JOB/SINT-JOB,SAINT-JOB/SINT JOB - PLACE SAINT JOB/SINT-JOB PLEIN,50.794186,4.366336
240,240 - VANDERKINDERE,VANDERKINDERE - AVENUE ALBERT/ALBERTLAAN N° 272,50.81418,4.347721
40,040 - PORTE DE HAL / HALLEPOORT,PORTE DE HAL/HALLEPOORT - BOULEVARD DU MIDI/ZUIDLAAN 142,50.833931,4.343155
109,109 - CHATELAIN/KASTELEIN,CHATELAIN/KASTELEIN - RUE DE L'AQUEDUC /AQUADUCTSTRAAT 115-117-119,50.824048,4.359896
73,073 - VLEURGAT,VLEURGAT - AVENUE LOUISE/LOUIZALAAN 300,50.823898,4.367752
159,159 - MASUI,MASUI - AVENUE DE LA REINE / KONINGINNELAAN 153,50.869297,4.36257
199,199 - HENRI REY,STATION HENRI REY - BD FELIX PAULSEN / FELIX PAULSENLAAN 3-5-7-9,50.843693,4.304986
65,065 - PARVIS DE ST GILLES,PARVIS DE ST GILLES/ST-GILLISVOORPLEIN - CHAUSSEE DE WATERLOO/ WATERLOOSESTEENWEG 65-69,50.829985,4.344557
243,243 - RONDPOINT CHURCHILL/ROTONDE CHURCHILL,RONDPOINT CHURCHILL/ROTONDE CHURCHILL - AV MESSIDOR FACE 338/MESSIDORLAAN TEGENOVER 338,50.811752,4.353424
343,343 - VANDENDRIESCH,VANDENDRIESCH - RUE J-B VANDENDRIESCH 22-24,50.861788,4.292913
301,301 - MARIE-JOSE,MARIE-JOSE - PLACE MARIE-JOSE FACE 14 / MARIE-JOSE PLAATS VOOR 14,50.806552,4.387843
26,026 - VAN LINT,VAN LINT - RUE VAN LINT/ VAN LINTSTRAAT 6 - 8,50.839413,4.328914
47,047 - LES QUAIS / KAAIEN,LES QUAIS/KAAIEN - QUAI A LA CHAUX/KALKKAAI 1-2,50.854714,4.347151
295,295 - COIN DU BALAI,COIN DU BALAI - AV DE LA FORESTERIE,50.793682,4.418497
313,313 - DEMEY,DEMEY - INTERSECTION BD INVALIDENLAAN / AV LOUIS DEHOUXLAAN,50.814858,4.417184
61,061 - MAELBEEK / MAALBEEK,MAELBEEK/MAALBEEK - CHAUSSEE D'ETTERBEEK/ETTERBEEKSESTEENWEG 15,50.843836,4.378002
189,189 - PLACE VAN MEYEL/VAN MEYELPLEIN,PLACE VAN MEYEL/VAN MEYELPLEIN,50.836924,4.389073
54,054 - TOUR ET TAXIS/THURN &TAXIS,TOUR ET TAXIS/THURN &TAXIS - RUE PICARD/ PICARDSTRAAT 3,50.863445,4.34635
312,312 - CENTRE CULTUREL / CULTUREEL CENTRUM,CENTRE CULTUREL / CULTUREEL CENTRUM - BD DU SOUVERAIN FACE 282 / VORSTLAAN VOOR 282,50.816948,4.426551
287,287 - FLOREAL,FLOREAL - AV BRUGMANN 359 / BRUGMANNLAAN 359,50.809334,4.345243
239,239 - DARWIN,DARWIN - AV. BRUGMANN / BRUGMANNLAAN 139-147,50.817777,4.350406
205,205 - DE LINDE,DE LINDE - PLACE DE LINDE 22 / DE LINDEPLEIN 22,50.835503,4.299573
137,137 - MAISON COMMUNALE DE SCHAERBEEK,MAISON COMMUNALE DE SCHAERBEEK / SCHAARBEEK GEMEENTEHUIS - RUE ROYALE SAINTE MARIE/KONINKLIJKE SINTE-MARIASTRAAT 241-243-245,50.86661,4.373102
185,185 - PERE DE DEKEN/PATER DE DEKEN,PERE DE DEKEN/PATER DE DEKEN - RUE PÈRE DE DEKEN/ PATER DE DEKENSTRAAT 40,50.835797,4.401599
227,227 - PATINAGE,PATINAGE - RUE SAINT DENIS DEVANT 122,50.816695,4.319891
88,088 - WOESTE,WOESTE - AVENUE NOTRE DAME DE LOURDES / ONZE-LIEVE-VROUW VAN LOURDESLAAN,50.873354,4.334311
182,182 - BOILEAU,BOILEAU - BOULEVARD SAINT MICHEL / SINT-MICHIELSLAAN,50.83168,4.404769
220,220 - LUTHER KING,LUTHER KING - BD MAURICE CAREME 30 / MAURICE CAREMELAAN 30,50.824867,4.287059
142,142 - BIENFAITEURS/WELDOENERS,BIENFAITEURS/WELDOENERS - AVENUE ROGIER / ROGIERLAAN 269/271,50.857319,4.386724
96,096 - HOTEL PRESIDENT,HOTEL PRESIDENT/PRESIDENT HOTEL - BOULEVARD DU ROI ALBERT II/KONING ALBERT-II LAAN,50.863875,4.358708
119,119 - PAQUOT/PACQUOT,PAQUOT -  RUE JEAN PAQUOT (44 A 48) /JEAN PAQUOTSTRAAT (44 T.E.M 48),50.82559,4.379555
264,264 - NOTRE DAME/ONZE LIEVE VROUW,NOTRE DAME / ONZE LIEVE VROUW - AV NOTRE DAME 53 A 61 / ONZE LIEVE VROUWLAAN 53 TOT 61,50.870983,4.397506
207,207 - BIESTEBROECK / BIESTEBROEK,BIESTEBROECK / BIESTEBROEK - CHEE DE MONS (FACE AU 518-526) / BERGENSESTEENWEG (TEGENOVER 518-526),50.833424,4.313378
180,180 - JOURDAN,JOURDAN - RUE FROISSART (FACE 3 - 5) / FROISSARTSTRAAT (TEGENOVER 3 - 5),50.837726,4.381565
254,254 - BASILIQUE / BASILIEK,BASILIQUE / BASILIEK - AV JACQUES SERMON / JACUES SERMONLAAN,50.867393,4.320344
310,310 - SAINT-VINCENT / SINT-VINCENTIUS,SAINT VINCENT / SINT-VINCENTIUS - RUE STROOBANTS/STROOBANTSSTRAAT,50.88058,4.401674
63,063 - JULES CESAR,JULES CESAR - AVENUE DE TERVUREN DEVANT / TERVURENLAAN VOOR 278,50.834705,4.421643
290,290 - GARE DE CALEVOET / KALEVOET STATION,GARE DE CALEVOET / KALEVOET STATION - CHEE D'ALSEMBERG / ALSEMBERGSESTEENWEG 1006,50.79158,4.332669
124,124 - CHARLES GRAUX,CHARLES GRAUX - CHAUSSEE DE WATERLOO (DEVANT N° 585 - 587)/ WATERLOOSESTEENWEG (N° 585 - 587),50.818283,4.363568
172,172 - AEROPOLIS,AEROPOLIS - CHAUSSEE D'HAECHT (FACE 586) / HAACHTSESTEENWEG (TEGENOVER 586),50.869764,4.388191
156,156 - JAMBLINE DE MEUX/JAMBLINNE DE MEUX,JAMBLINE DE MEUX - PLACE JAMBLINNE DE MEUX / JAMBLINNE DE MEUXPLEIN 43 - 44 - 45,50.847158,4.393255
91,091 - BELGICA,BELGICA - PLACE WERRIE/ WERRIEPLEIN 24,50.867773,4.335217
337,337 - SHOPPING,SHOPPING - BD DE LA WOLUWE,50.843779,4.437698
311,311 - DELTA,DELTA - BD DES INVALIDES / INVALIDENLAAN,50.818322,4.404122
70,070 - AURORE/DAGERAAD,AURORE/DAGERAAD - AVENUE LOUISE/LOUIZALAAN 440,50.818113,4.371446
5,005 - BOURSE / BEURS,BOURSE / BEURS - RUE PAUL DEVAUX/PAUL DEVAUXSTRAAT,50.848893,4.349396
244,244 - BOIS DE LA CAMBRE,BOIS DE LA CAMBRE - AV WINSTON CHURCHIL 254 / WINSTON CHURCHILLAAN 254,50.81218,4.368321
322,322 - PARC DU ROI BAUDOUIN / BOUDEWIJNPARK,PARC DU ROI BAUDOUIN / BOUDEWIJNPARK - RUE JEAN BAPTISTE MOYENSSTRAAT 400,50.889523,4.315953
170,170 - RIGA,RIGA - SQUARE FRANCOIS RIGA / FRANCOIS RIGASQUARE,50.87453,4.385378
14,014 - PORTE DE NAMUR / NAAMSEPOORT,PORTE DE NAMUR/NAAMSEPOORT - BOULEVARD DE WATERLOO 2,50.838816,4.361557
298,298 - HALL DES SPORTS,HALL DES SPORTS - AV DES 9 PROVINCES / 9 PROVINCIES LAAN / RUE VANDERVEKEN/STRAAT,50.877082,4.301232
20,020 - PALAIS ROYAL / KONINKLIJK PALEIS,PALAIS ROYAL/KONINGSSTRAAT PALEIS - RUE ROYALE (DEVANT N°14)/KONINKLIJKESTRAAT (N°14),50.843613,4.360628
107,107 - DEFACQZ,DEFACQZ - RUE DEFACQZ/ DEFACQZSTRAAT 25-27-29,50.827652,4.359031
281,281 - ATOMIUM,ATOMIUM - BOULEVARD DU CENTENAIRE / EEUWFEESTLAAN,50.895485,4.341311
209,209 - VEEWEYDE / VEEWEIDE,VEEWEYDE / VEEWEIDE - BD THEO LAMBERT (FACE 5 a 9) / THEO LAMBERTLAAN (TEGENOVER ( tot 9),50.828602,4.299621
211,211 - METRO CERIA,METRO CERIA - CH DE MONS (FACE AU 1292 a 1284) / BERGENSESTEENWEG (TEGENOVER 1292 TOT 1284),50.816528,4.290832
364,364 - DOCKS BRUXSEL,DOCKS BRUXSEL - AVENUE JULES VAN PRAETLAAN,50.879086,4.374729
127,127 - GRAY/GRAY,GRAY - RUE DES DEUX PONTS (FACE 4)/ TWEEBRUGGENSTRAAT (TEGENOVER 4),50.832194,4.377694
108,108 - FLAGEY,FLAGEY - PLACE FLAGEY (FACE 11)/EUGENE FLAGEYPLEIN (TEGENOVER 11),50.828012,4.371756
34,034 - FONTAINAS,FONTAINAS - BLD ANSPACH N°180 A 192/ANSPACHLAAN N°180 TOT 192,50.84563,4.346942
230,230 - BERKENDAEL / BERKENDAAL,BERKENDAEL / BERKENDAAL - AVENUE ALBERT / ALBERTLAAN 134,50.818382,4.346061
144,144 - SAINTE-MARIE/SINTE-MARIA,SAINTE MARIE/SINTE-MARIA - RUE ROYALE/ KONINGSSTRAAT 257 - 259,50.85778,4.368144
336,336 - KRAAINEM,KRAAINEM - AV DE WEZEMBEEK 7A,50.848578,4.459038
105,105 - DE HENNIN,DE HENNIN -  CHAUSSEE D'IXELLES/ELSENSE STEENWEG 254 - 260,50.830077,4.369545
224,224 - ROCHEFORT,ROCHEFORT - AV. WIELEMANS CEUPPENS LAAN 184-190,50.824352,4.334465
89,089 - ATHENEE DE JETTE/ATHENEUM VAN JETTE,ATHENEE DE JETTE/ATHENEUM VAN JETTE - AVENUE DE LEVIS MIREPOIX / DE LEVIS MIREPOIXLAAN 100,50.8711927450574,4.32992476563641
164,164 - KENNIS,KENNIS - BOULEVARD LAMBERMONT (20 M APRES 284)/LAMBERMONTLAAN   (20 M NA N° 284),50.867643,4.385817
328,328 - HEYDENBERG,HEYDENBERG - AV HEYDENBERG FACE 99-101,50.849386,4.41712
250,250 - SAINTE-ELISABETH,SAINTE-ELISABETH - AV DE FRE CROISEMENT CH DE WATERLOO / DEFRELAAN - WATERLOOSESTEENWEG,50.80534,4.372123
52,052 - SAINCTELETTE,SAINCTELETTE - PLACE SAINCTELETTE/SAINCTELETTEPLEIN,50.859212,4.34551
15,015 - MONTGOMERY,MONTGOMERY - AVENUE DE TERVUREN / TERVURENLAAN 136-138,50.837036,4.406826
90,090 - BROUSTIN,BROUSTIN - AV DE JETTE/ JETSELAAN 73 - 81,50.867448,4.326807
194,194 - STUYVENBERG,AVENUE HOUBA DE STROOPER LAAN 30-32,50.885885,4.342003
218,218 - DELACROIX,DELACROIX - RUE DE BIRMINGHAM 96 / BIRMINGHAMSTRAAT 96,50.845978218314,4.3232258415201
150,150 - MEISER/MEISER,MEISER - PLACE GENERAL MEISER (FACE 1 - 3) / GENERAAL MEISERPLEIN (TEGENOVER 1 - 3),50.854654,4.398451
203,203 - DEMOSTHENE,DEMOSTHENE - BD PRINCE DE LIEGE / PRINS VAN LUIKLAAN 216-218-220,50.84045,4.305055
11,011 - SABLON / ZAVEL,SABLON / ZAVEL - RUE DE LA REGENCE / REGENTSCHAPSSTRAAT 20,50.8405,4.356878
25,025 - PORTE D'ANDERLECHT,PORTE D'ANDERLECHT - BD DE L'ABATTOIR 43-44,50.845769,4.338961
349,349 - FONSNY,FONSNY - AVENUE FONSNY EN FACE DES DEBOUCHES DES RUES COENRAETS ET J. CLAES,50.833444,4.334857
87,087 - MIROIR/SPIEGEL,MIROIR/SPIEGEL - AVENUE DE LAEKEN (FACE 36) / LAKENSE LAAN (TEGENOVER 36),50.871391,4.323914
152,152 - PLACE DAILLY/DAILLYPLEIN,PLACE DAILLY / DAILLYPLEIN - PLACE DAILLY / DAILLYPLEIN 24 - 25,50.852389,4.387373
286,286 - BENS,BENS - CHEE D'ALSEMBERG DEVANT LE 617 / ALSEMBERSESTEENWEG VOOR 617,50.8081,4.336816
24,024 - ROGIER / ROGIER,ROGIER - BOULEVARD DU JARDIN BOTANIQUE/KRUIDTUINLAAN,50.855268,4.358717
188,188 - OSSEGHEM,OSSEGHEM -  AVENUE MAHATMA GANDHI/ MAHATMA GANDHILAAN 10,50.857235,4.324354
198,198 - SCHEUT,SCHEUT - CHEE DE NINOVE (FACE 441) / NINOOFSESTEENWEG (TEGENOVER 441),50.847649,4.307714
265,265 - EVERE SHOPPING,EVERE SHOPPING - AV DES LOISIRS / VRIJETIJDSLAAN,50.867241,4.40287
356,356 - CENTRE SPORTIF,CENTRE SPORTIF - AVENUE JULES DU JARDIN FACE AU N°45 (ROND POINT DU TIBET),50.829715,4.455151
223,223 - WIELS,WIELS - AV.WIELEMANS CEUPPENS/LAAN 7,50.824055,4.326376
253,253 - REINE FABIOLA / KONINGIN FABIOLA,REINE FABIOLA / KONINGIN FABIOLA - AV PIETER GODEFROY / PIETER GODEFROYLAAN,50.872475,4.314266
59,059 - PLACE ST-JOSSE/ST-JOOSTPLEIN,PLACE ST-JOSSE/ST-JOOSTPLEIN  -  RUE WILLEMS (FACE 5 - 11) / WILLEMSSTRAAT (TEGENOVER 5 - 11),50.849681,4.375312
179,179 - CELTES/KELTEN,CELTES/KELTEN - AVENUE DE TERVUEREN (FACE AU 17) / TERVURENLAAN (TEGENOVER 17),50.839217,4.398015
151,151 - LOUVAIN 488-494/LEUVEN 488-494,LOUVAIN / LEUVEN - CHAUSSEE DE LOUVAIN - LEUVENSESTEENWEG  488-494,50.853518,4.392491
255,255 - SACRE-COEUR DE GANSHOREN,SACRE-COEUR DE GANSHOREN / HEILIGE HART VAN GANSHOREN - AV CHARLESQUINT,9 / KEISERKARELLAAN,9,50.868011,4.313968
176,176 - COLONEL BOURG/KOLONEL BOURG,COLONEL BOURG/KOLONEL BOURG - RUE COLONEL BOURG/ KOLONEL BOURGSTRAAT 104,50.852356,4.408635
42,042 - PORTE DE NINOVE /NINOOFSEPOORT,PORTE DE NINOVE/NINOOFSEPOORT - PLACE DE NINOVE/NINOOFSEPLEIN/SUR BLD DE L'ABATTOIR/OP SLACHTHUISLAAN,50.84851,4.338064
115,115 - PETITE SUISSE/KLEIN ZWITSERLAND,PETITE SUISSE / KLEIN ZWITSERLAND - PLACE DE LA PETITE SUISSE (FACE 16-18) / KLEIN ZWITSERLANDPLEIN (TEGENOVER 16 - 18),50.8178067955119,4.38546967650475
75,075 - GENERAL BARON/GENERAAL BARON,GENERAL BARON/GENERAAL BARON - AV DU PARC / PARKLAAN 51 - 55,50.825888,4.340388
196,196 - PRINCE DE LIEGE / PRINS VAN LUIK,PRINCE DE LIEGE / PRINS VAN LUIK - CHEE DE NINOVE (FACE 629) / NINOOFSESTEENWEG (TEGENOVER 629),50.846874,4.29817
80,080 - CERES,CERES - AV. F. ROOSEVELT/F. ROOSEVELTLAAN 14,50.814852,4.376794
121,121 - ETANGS / VIJVERS,ETANGS / VIJVERS - RUE GUILLAUME STOCQ (FACE AU N° 1-3-5)/ GUILLAUME STOCQSTRAAT (TEGENOVER N° 1-3-5),50.823986,4.37379
95,095 - PLACE BOCKSTAEL/BOCKSTAELPLAATS,PLACE BOCKSTAEL/BOCKSTAELPLAATS - BLD EMILE BOCKSTAEL/EMILE BOCKSTAELLAAN 254,50.87808,4.34793
2,002 - ELOY/ELOY,ELOY - RUE ELOY / ELOYSTRAAT,50.836151,4.326019
51,051 - MIDI FONSNY/ZUID FONSNY,MIDI FONSNY/ZUID FONSNY - RUE D'ANGLETERRE / ENGELANDSTRAAT,50.835699,4.338826
201,201 - PETERBOS,PETERBOS - BD MARIA GROENINCKX DE MAY (FACE 26) / MARIA GROENINCKX DE MAYLAAN (TEGENOVER 26),50.8414,4.296013
81,081 - PONT BOCKSTAEL/BRUG BOCKSTAEL,PONT BOCKSTAEL/BRUG BOCKSTAEL - BLD EMILE BOCKSTAEL/EMILE BOCKSTAELLAAN 5,50.870259,4.343195
37,037 - POELAERT / POELAERT,POELAERT - PLACE POELAERT/POELAERTPLEIN 3,50.83795,4.353019
148,148 - GARE MEISER/MEISER STATION,GARE MEISER / MEISER STATION - AVENUE ROGIER/ ROGIERLAAN 377 - 379,50.855629,4.394807
262,262 - PLACE DE LA PAIX/VREDEPLAIN,PLACE DE LA PAIX / VREDEPLAIN - PLACE DE LA PAIX FACE 24 / VREDEPLEIN VOOR 24,50.87693,4.400722
71,071 - LEGRAND,LEGRAND - AV LOUISE/LOUIZALAAN 525,50.815019,4.371982
354,354 - TRIOMPHE / TRIOMF,TRIOMPHE - BD DU TRIOMPHE / TRIOMFLAAN  105 - 107,50.821557,4.402288
293,293 - KEYM,KEYM - AVENUE DU COLVERT,50.810528,4.40231
280,280 - HEYSEL / HEISEL,HEYSEL / HEISEL - AVENUE DE L'IMPERATRICE CHARLOTTE / KEIZERIN CHARLOTTELAAN,50.897522,4.334831
282,282 - CENTENAIRE / EEUWFEEST,CENTENAIRE / EEUWFEEST - BOULEVARD DU CENTENAIRE / EEUWFEESTLAAN,50.89097,4.344827
64,064 - VETERINAIRES,VETERINAIRES/VEEARTSEN - RUE DE FRANCE / FRANKRIJKSTRAAT,50.832749,4.331058
30,030 - LAEKEN / LAKEN,LAEKEN/LAKEN - RUE DE LAEKEN (ENTRE N° 119 ET 109) / LAKENSESTRAAT (TUSSEN N° 119 EN 109),50.853666,4.351771
68,068 - JEAN REY,JEAN REY - PLACE JEAN REY/JEAN REYPLAATS,50.840282,4.380131
222,222 - MERCKX,MERCKX - ROUTE DE LENNIK / LENNIKSEBAAN,50.8172462427287,4.28044544916521
33,033 - MORT SUBITE,MORT SUBITE - RUE MONTAGNE AUX-HERBES-POTAGERES (FACE N° 7)/WARMOESBERG (TEGENOVER N°7),50.848701,4.356055
85,085 - ETANGS NOIRS/ZWARTE VIJVERS,ETANGS NOIRS /ZWARTE VIJVERS - CHEE DE GAND/STEENWEG OP GENT,50.8572655240874,4.33236837868758
32,032 - DANSAERT,DANSAERT - RUE ANTOINE DANSAERT/ANTOINE DANSAERTSTRAAT 60-62-64,50.850176,4.346384
192,192 - AUBERGE DE JEUNESSE,AUBERGE DE JEUNESSE - RUE DELAUNOY/STRAAT ,67,50.851562,4.332924
340,340 - TOMBERG,AVENUE PAUL HYMANSLAAN,50.843617,4.425324
213,213 - LA ROUE / HET RAD,LA ROUE / HET RAD - CH DE MONS 1100-1106 / BERGENSESTEENWEG 1100-1106,50.821018,4.293865
128,128 - MUSEE DU TRAM,MUSEE DU TRAM - AVENUE DE TERVUREN / TERVURENLAAN,50.832355,4.432358
233,233 - PARC DUDEN / DUDEN PARK,PARC DUDEN / DUDEN PARK - AV VICTOR ROUSSEAU FACE 132 / VICTOR ROUSSEAULAAN VOOR 132,50.813858,4.330992
303,303 - VIEUX TILLEUL,VIEUX TILLEUL - AV DU BOIS DE LA CAMBRE FACE 113,50.807903,4.392756
258,258 - LIBERTE,LIBERTE - AV DE LA LIBERTE 44 / VRIJHEIDSLAAN,44,50.862152,4.323353
259,259 - NOVILLE,NOVILLE - SQ NOVILLE,50.859608,4.33409
28,028 - CLEMENCEAU / CLEMENCEAU,CLEMENCEAU - CHEE DE MONS/ BERGENSE STEENWEG 159-161-163,50.842005,4.3305
160,160 - ELISA,ELISA - PLACE PRINCESSE ELISABETH / PRINSES ELISABETHPLEIN 8 - 19,50.877501,4.380315
92,092 - LENOIR,LENOIR - BLD DE SMET DE NAEYER/DE SMET DE NAEYERLAAN 187 - 189,50.875826,4.329921
145,145 - COTEAUX/WIJNHEUVELEN,COTEAUX/WIJNHEUVELEN - AVENUE ROGIER / ROGIERLAAN 128,50.859096,4.379117
297,297 - TEN REUKEN,TEN REUKEN - BD DU SOUVERAIN FACE 76,50.804775,4.426387
296,296 - GARE DE BOITSFORT,GARE DE BOITSFORT / BOSVOORDE STATION - CHEE DE LA HULPE DVT 187 / HULPSESTEENWEG 187,50.79528,4.40832
317,317 - GEYSKENS,GEYSKENS - AVENUE ISIDORE GEYSKENSLAAN FACE/TEGENOVER 108,50.82015,4.4222
110,110 - RODIN,RODIN - AVENUE DE LA COURONNE (DEVANT 145 D) / KROONLAAN (N° 145 D),50.826992,4.382379
314,314 - HERRMANN DEBROUX,HERRMANN DEBROUX - AV HERRMANN DEBROUXLAAN,50.812325,4.427962
325,325 - HANKAR,HANKAR - CHEE DE WAVRE / WAVERSESTEENWEG 1208,50.821441,4.406925
76,076 - PLACE VAN MEENEN/VAN MEENENPLEIN,PLACE VAN MEENEN/VAN MEENENPLEIN - AV PAUL DEJAER (FACE 35 - 39) / PAUL DEJAERLAAN (TEGENOVER 35 - 39),50.825749,4.345165
102,102 - MUSEUM/MUSEUM,MUSEUM - CHAUSSEE DE WAVRE (FACE 229 - 233)  /  WAVERSESTEENWEG (TEGENOVER 229 - 233),50.83579,4.375782
288,288 - HOUZEAU,HOUZEAU - AVENUE HOUZEAU 21 / HOUZEAULAAN 21,50.80351,4.3589
346,346 - RECHERCHE,RECHERCHE - ROUTE DE LENNIK N°788,50.81591,4.2737
53,053 - GARE DU MIDI / ZUIDSTATION,GARE DU MIDI / ZUIDSTATION - PLACE VICTOR HORTA / VICTOR HORTAPLEIN,50.837499,4.335947
136,136 - PAVILLON/PAVILJOEN,PAVILLON/PAVILJOEN - PLACE PAVILLON /PAVILJOENPLAATS 92-94-96,50.869809,4.371808
146,146 - LEOPOLD III/LEOPOLD III,LEOPOLD III -  BOULEVARD LEOPOLD III / LEOPOLD III-LAAN,50.859243,4.401022
120,120 - BLYCKAERTS,BLYCKAERTS - PLACE RAYMOND BLYCKAERTS/RAYMOND BLYCKAERTSPLEIN,50.832872,4.37483
353,353 - BEAULIEU,BEAULIEU - RUE JULES COCKX / JULES COCKXSTRAAT,50.815681,4.40812
324,324 - THOMAS BALIS,THOMAS BALIS - CHEE DE WAVRE 1395 à 1403 / WAVERSESTEENWEG 1395 TOT 1403,50.819641,4.412926
309,309 - SQUARE DU CENTENAIRE,SQUARE DU CENTENAIRE / EEUWFEESTSQUARE- SQUARE DU CENTENAIRE,50.87521,4.317954
226,226 - UNION/UNIE,UNION/UNIE - BD DE LA DEUXIEME ARMEE BRITANNIQUE / BRITS TWEEDELEGERLAAN 8 - 2,50.819939,4.325277
141,141 - GARE DU NORD/NOORDSTATION,GARE DU NORD/NOORDSTATION - PLACE SIMON BOLIVAR/ SIMON BOLIVARLAAN,50.8607543151327,4.358885700202
248,248 - PRINCE DE LIGNE / PRINCE LIJN,PRINCE DE LIGNE / PRINCE LIJN - CHEE DE WATERLOO FACE 1170 / WATERLOOSESTEENWEG VOOR 1170,50.795704,4.373631
55,055 - BOTANIQUE/KRUIDTUIN,BOTANIQUE/KRUIDTUIN - AVENUE GALILEE/GALILEELAAN,50.853248,4.366188
348,348 - HANSEN-SOULIE,HANSEN-SOULIE - AVENUE HANSEN-SOULIE 42,50.831078,4.398546
327,327 - SIBELGA,SIBELGA - QUAI DES USINES / WERKHUIZENKAAI 16,50.874082,4.362205
19,019 - PLACE MORICHAR/MORICHARPLEIN,PLACE MORICHAR / MORICHARPLEIN - RUE DES ETUDIANTS/ STUDENTENSTRAAT 32 - 34,50.828046,4.347596
149,149 - JULES LEBRUN,JULES LEBRUN - CHAUSSEE DE LOUVAIN (FACE 593) / LEUVENSE STEENWEG (TEGENOVER 593),50.856208,4.403386
46,046 - ALBERTINE / ALBERTINA,ALBERTINE/ALBERTINA - BLD DE L'EMPEREUR/KEIZERSLAAN 3,50.843892,4.355012
289,289 - SQUARE GEORGES MARLOWSQUARE,SQUARE GEORGES MARLOWSQUARE - SQUARE MARLOW FACE 3-4-5 / MARLOWSQUARE VOOR 3-4-5,50.801816,4.340738
299,299 - SAINT-ADRIEN,SAINT-ADRIEN - AV DU PESAGE N°21,50.809355,4.386606
273,273 - TAMARIS,TAMARIS - BD METTEWIE LAAN VOOR/FACE 71,50.854824,4.306209
8,008 - ARTS-LOI / KUNST-WET,ARTS-LOI/KUNST-WET -  AVENUE DES ARTS/KUNSTLAAN 24,50.845683,4.368582
36,036 - PLACE ST JEAN / SINT-JANSPLEIN,PLACE ST JEAN/SINT-JANSPLEIN - RUE DU LOMBARD/LOMBARDSTRAAT 42,50.845124,4.351486
3,003 - PORTE DE FLANDRE / VLAAMSEPOORT,PORTE DE FLANDRE/VLAAMSEPOORT - BLD DE NIEUPORT/NIEUWPOORTLAAN 1,50.853203,4.341823
261,261 - CONSCIENCE,CONSCIENCE - AVENUE HENRI CONSCIENCE / HENRI CONSCIENCELAAN 83,50.86879,4.399587
284,284 - CLAESSENS,CLAESSENS - RUE CLAESSENS FACE 7 / CLAESSENSSTRAAT VOOR 7,50.873085,4.35859
247,247 - STALLE,STALLE - RUE DE STALLE PROLONGEE/VERLENGDE STALLESTRAAT,50.79586,4.32058
331,331 - GEORGES HENRI,GEORGES HENRI - AV GEORGES HENRI,50.842319,4.406295
10,010 - CHAPELLE / KAPEL,CHAPELLE/KAPEL - PLACE DE LA CHAPELLE/KAPELLEPLEIN,50.841345,4.351729
163,163 - CHAZAL/CHAZAL,CHAZAL - AVENUE ERNEST CAMBIER (FACE 7)/ ERNEST CAMBIERLAAN (TEGENOVER 7),50.859112,4.39157
210,210 - MARIUS RENARD,MARIUS RENARD - AV CHARLES DE TOLLENAERE (FACE 60) - CHARLES DE TOLLENAERELAAN (TEGENOVER 60),50.827873,4.288707
306,306 - HEMBEEK,HEMBEEK - ANGLE AV DES CROIX DE FEU / VUURKRUISENLAAN 7-9,50.889073,4.375073
326,326 - ADEPS,ADEPS - CHEE DE WAVRE / WAVERSESTEENWEG 2057,50.809406,4.443777
334,334 - MARCEL THIRY,MARCEL THIRY - AV MARCEL THIRY FACE 23,50.855593,4.439625
78,078 - DUC PETIAUX,DUC PETIAUX - CHAUSSEE DE WATERLOO/ WATERLOOSESTEENWEG 376 - 370,50.823699,4.351623
31,031 - MUSEE DE LA BD / STRIPMUSEUM,MUSEE DE LA BD/STRIPMUSEUM - BOULEVARD DE BERLAIMONT/DE BERLAIMONTLAAN,50.850303,4.360706
6,006 - GARE CENTRALE/CENTRAAL STATION,GARE CENTRALE/CENTRAAL STATION - BLD DE L'IMPERATRICE/KEIZERINLAAN,50.845333,4.356475
215,215 - CUREGHEM / KUREGEM,CUREGHEM / KUREGEM - AV RAYMOND VANDER BRUGGEN / VANDEN BRUGGENLAAN,50.836864,4.317321
21,021 - DE BROUCKERE,DE BROUCKERE - PLACE DE BROUCKERE/DE BROUCKEREPLEIN,50.85223,4.35316
13,013 - LEMONNIER,LEMONNIER - BLD. MAURICE LEMONNIER/DE MAURICE LEMONNIERLAAN 202-204-206,50.840184,4.341324
22,022 - JACQMAIN,JACQMAIN - BLD. D'ANVERS / ANTWERPSELAAN 4,50.85587,4.35585
113,113 - ABBAYE DE LA CAMBRE / ABDIJ TER KAMEREN,ABBAYE DE LA CAMBRE/ABDIJ TER KAMEREN - AVENUE EMILE DURAY (FACE AU N° 2) /EMILE DURAYLAAN (TEGENOVER N° 2),50.820042,4.374785
294,294 - WIENER,WIENER - PLACE WIENER 2 / WIENERPLAATS 2,50.798344,4.419014
241,241 - STATUAIRES/BEELDHOUWWERK,STATUAIRES/BEELDHOUWWERK - AVENUE DE FRE/DE FRELAAN 62,50.803917,4.349116
237,237 - PARVIS ST ANTOINE,PARVIS ST ANTOINE / ST ANTONIUS VOORPLEIN - RUE DE MERODE/MERODESTRAAT 290,50.827972,4.330705
4,004 - JARDIN AUX FLEURS / BLOEMENHOF,JARDIN AUX FLEURS/BLOEMENHOF - PLACE DU JARDIN AUX FLEURS/BLOEMENHOFPLEIN - RUE DES 6 JETONS/ZES PENNIGENSTRAAT 71,50.8478648532058,4.34352099986983
216,216 - ARISTIDE BRIAND,ARISTIDE BRIAND - CH DE MONS 718 a 720 / BERGENSESTEENWEG 718 tot 720,50.828873,4.303918
126,126 - FABRY,FABRY - BOULEVARD DE LA WOLUWE / WOLUWELAAN 28,50.837288,4.43462
276,276 - CROIX DE GUERRES / OORLOGSKRUISEN,CROIX DE GUERRES / OORLOGSKRUISEN - AVENUE DES CROIX DE GUERRE / OORLOGSKRUISENLAAN 116,50.889748,4.380755
45,045 - STEPHANIE/STEFANIA,STEPHANIE/STEFANIA - AV LOUISE/LOUIZALAAN 61A-63-65,50.83308,4.35743
166,166 - GC ESSEGEM,GC ESSEGEM - RUE AMELIE GOMAND 51- 45,50.876205,4.337137
277,277 - VAN PRAET,VAN PRAET - AVENUE VAN PRAET / VAN PRAETLAAN,50.881588,4.373817
272,272 - SCHEUTBOS,SCHEUTBOS - BD METTEWIE/LAAN FACE/VOOR 419,50.850845,4.299659
236,236 -MAISON COMMUNALE DE FOREST/VORST GEMEENTEHUIS,MAISON COMMUNALE DE FOREST / VORST GEMEENTEHUIS - RUE SAINT DENIS 4 / SINT DENIJSSTRAAT 4,50.812328,4.318885
219,219 - VAN HELLEMONT,VAN HELLEMONT - RUE DE NEERPEDE 372-374 / NEERPEDESTRAAT 372-374,50.829491,4.286006
139,139 - LIEDTS,LIEDTS - PLACE LIEDTS (FACE AU 38)/ LIEDTSPLEIN (TEGENOVER 38),50.863872,4.366741
72,072 - ULB SOLBOSCH / VUB  SOLBOSCH,ULB SOLBOSCH / VUB SOLBOSCH - AV. F.ROOSEVELT/F.ROOSEVELTLAAN 19,50.812489,4.379203
341,341 - VOOT,VOOT - BD DE LA WOLUWE DVT 58,50.840942,4.436529
173,173 - BICHON,BICHON - PLACE BICHON / BICHONPLEIN,50.864656,4.394448